ONEWEB-0461             
1 51649U 22012AD  24131.51420721  .00000014  00000+0  39173-5 0  9997
2 51649  87.9174 158.6497 0002046  89.4625 270.6741 13.17648520112793
ONEWEB-0463             
1 51650U 22012AE  24131.57275013  .00000025  00000+0  30839-4 0  9998
2 51650  87.9178 158.6834 0001968  90.8037 269.3320 13.17648002112589
ONEWEB-0464             
1 51651U 22012AF  24131.56368783 -.00000481  00000+0 -14143-2 0  9991
2 51651  87.8975 188.8522 0002318 107.8006 252.3374 13.10370134108798
ONEWEB-0468             
1 51652U 22012AG  24131.57032676 -.00000630  00000+0 -18403-2 0  9991
2 51652  87.8976 188.8439 0002086 101.0330 259.1032 13.10372471108775
ONEWEB-0473             
1 51653U 22012AH  24131.55540029 -.00000192  00000+0 -58728-3 0  9994
2 51653  87.8971 188.8500 0002018 101.9552 258.1801 13.10370128108770
ONEWEB-0474             
1 51654U 22012AJ  24131.54710313  .00000261  00000+0  71160-3 0  9999
2 51654  87.8962 188.8519 0002033 106.6372 253.4979 13.10369852108765
ONEWEB-0475             
1 51655U 22012AK  24131.50788941 -.00000004  00000+0 -43395-4 0  9995
2 51655  87.9178 158.6753 0001862 106.2336 253.9001 13.17649634112599
ONEWEB-0490             
1 54113U 22138A   24131.41373747  .00000100  00000+0  21698-3 0  9996
2 54113  87.9118  97.7672 0002065  90.0293 270.1076 13.19723919 75565
